[{"OBJECT_NAME":"STARLINK-34951","OBJECT_ID":"2025-184W","EPOCH":"2026-03-09T17:08:57.119136","MEAN_MOTION":15.05647708,"ECCENTRICITY":9.497e-5,"INCLINATION":97.6018,"RA_OF_ASC_NODE":122.6725,"ARG_OF_PERICENTER":108.144,"MEAN_ANOMALY":251.989,"EPHEMERIS_TYPE":0,"CLASSIFICATION_TYPE":"U","NORAD_CAT_ID":65293,"ELEMENT_SET_NO":999,"REV_AT_EPOCH":3130,"BSTAR":0.00012663302,"MEAN_MOTION_DOT":1.767e-5,"MEAN_MOTION_DDOT":0},{"OBJECT_NAME":"CZ-6A DEB","OBJECT_ID":"2024-140ACV","EPOCH":"2026-03-09T14:12:17.134272","MEAN_MOTION":14.90958508,"ECCENTRICITY":0.0072596,"INCLINATION":89.2243,"RA_OF_ASC_NODE":297.3941,"ARG_OF_PERICENTER":114.4317,"MEAN_ANOMALY":246.4509,"EPHEMERIS_TYPE":0,"CLASSIFICATION_TYPE":"U","NORAD_CAT_ID":61829,"ELEMENT_SET_NO":999,"REV_AT_EPOCH":7741,"BSTAR":0.0037165,"MEAN_MOTION_DOT":0.00038761,"MEAN_MOTION_DDOT":0}]
